{
  "norad_id": 68340,
  "name": "STARLINK-37185",
  "history": [
    {
      "epoch": "2026-03-31T16:00:01.999584Z",
      "apogee_km": 323.87654157876295,
      "perigee_km": 323.03616177246386,
      "latitude_deg": -49.478669026334956,
      "longitude_deg": 122.890824444619,
      "height_km": 340.84378498489025,
      "semi_major_axis_km": 6701.593351675613,
      "eccentricity": 6.27e-05,
      "inclination_deg": 53.1593,
      "raan_deg": 252.5867,
      "arg_perigee_deg": 79.3538,
      "mean_anomaly_deg": 209.3279,
      "mean_motion_rev_day": 15.82470616
    }
  ]
}